<?xml version="1.0" encoding="UTF-8"?>
<ndm xmlns:xsi="http://www.w3.org/2001/XMLSchema-instance" xsi:noNamespaceSchemaLocation="https://sanaregistry.org/r/ndmxml_unqualified/ndmxml-2.0.0-master-2.0.xsd">
<omm id="CCSDS_OMM_VERS" version="2.0">
<header><CREATION_DATE/><ORIGINATOR/></header><body><segment><metadata><OBJECT_NAME>ONEWEB-0525</OBJECT_NAME><OBJECT_ID>2022-138AG</OBJECT_ID><CENTER_NAME>EARTH</CENTER_NAME><REF_FRAME>TEME</REF_FRAME><TIME_SYSTEM>UTC</TIME_SYSTEM><MEAN_ELEMENT_THEORY>SGP4</MEAN_ELEMENT_THEORY></metadata><data><meanElements><EPOCH>2024-02-06T17:32:41.022240</EPOCH><MEAN_MOTION>13.19725672</MEAN_MOTION><ECCENTRICITY>.0002272</ECCENTRICITY><INCLINATION>87.9182</INCLINATION><RA_OF_ASC_NODE>116.4594</RA_OF_ASC_NODE><ARG_OF_PERICENTER>101.7210</ARG_OF_PERICENTER><MEAN_ANOMALY>258.4177</MEAN_ANOMALY></meanElements><tleParameters><EPHEMERIS_TYPE>0</EPHEMERIS_TYPE><CLASSIFICATION_TYPE>U</CLASSIFICATION_TYPE><NORAD_CAT_ID>54143</NORAD_CAT_ID><ELEMENT_SET_NO>999</ELEMENT_SET_NO><REV_AT_EPOCH>6320</REV_AT_EPOCH><BSTAR>-.10816E-3</BSTAR><MEAN_MOTION_DOT>-.3E-6</MEAN_MOTION_DOT><MEAN_MOTION_DDOT>0</MEAN_MOTION_DDOT></tleParameters></data></segment></body></omm>
<omm id="CCSDS_OMM_VERS" version="2.0">
<header><CREATION_DATE/><ORIGINATOR/></header><body><segment><metadata><OBJECT_NAME>ONEWEB-0526</OBJECT_NAME><OBJECT_ID>2022-138AH</OBJECT_ID><CENTER_NAME>EARTH</CENTER_NAME><REF_FRAME>TEME</REF_FRAME><TIME_SYSTEM>UTC</TIME_SYSTEM><MEAN_ELEMENT_THEORY>SGP4</MEAN_ELEMENT_THEORY></metadata><data><meanElements><EPOCH>2024-02-06T18:20:26.762496</EPOCH><MEAN_MOTION>13.19725438</MEAN_MOTION><ECCENTRICITY>.0001993</ECCENTRICITY><INCLINATION>87.9179</INCLINATION><RA_OF_ASC_NODE>116.4508</RA_OF_ASC_NODE><ARG_OF_PERICENTER>99.7345</ARG_OF_PERICENTER><MEAN_ANOMALY>260.4013</MEAN_ANOMALY></meanElements><tleParameters><EPHEMERIS_TYPE>0</EPHEMERIS_TYPE><CLASSIFICATION_TYPE>U</CLASSIFICATION_TYPE><NORAD_CAT_ID>54144</NORAD_CAT_ID><ELEMENT_SET_NO>999</ELEMENT_SET_NO><REV_AT_EPOCH>6318</REV_AT_EPOCH><BSTAR>-.12516E-4</BSTAR><MEAN_MOTION_DOT>.8E-7</MEAN_MOTION_DOT><MEAN_MOTION_DDOT>0</MEAN_MOTION_DDOT></tleParameters></data></segment></body></omm>
<omm id="CCSDS_OMM_VERS" version="2.0">
<header><CREATION_DATE/><ORIGINATOR/></header><body><segment><metadata><OBJECT_NAME>ONEWEB-0536</OBJECT_NAME><OBJECT_ID>2022-138AM</OBJECT_ID><CENTER_NAME>EARTH</CENTER_NAME><REF_FRAME>TEME</REF_FRAME><TIME_SYSTEM>UTC</TIME_SYSTEM><MEAN_ELEMENT_THEORY>SGP4</MEAN_ELEMENT_THEORY></metadata><data><meanElements><EPOCH>2024-02-06T15:18:33.878304</EPOCH><MEAN_MOTION>13.20772990</MEAN_MOTION><ECCENTRICITY>.0000778</ECCENTRICITY><INCLINATION>87.9150</INCLINATION><RA_OF_ASC_NODE>85.9680</RA_OF_ASC_NODE><ARG_OF_PERICENTER>109.4036</ARG_OF_PERICENTER><MEAN_ANOMALY>250.7181</MEAN_ANOMALY></meanElements><tleParameters><EPHEMERIS_TYPE>0</EPHEMERIS_TYPE><CLASSIFICATION_TYPE>U</CLASSIFICATION_TYPE><NORAD_CAT_ID>54148</NORAD_CAT_ID><ELEMENT_SET_NO>999</ELEMENT_SET_NO><REV_AT_EPOCH>6557</REV_AT_EPOCH><BSTAR>.12632E-3</BSTAR><MEAN_MOTION_DOT>.64E-6</MEAN_MOTION_DOT><MEAN_MOTION_DDOT>0</MEAN_MOTION_DDOT></tleParameters></data></segment></body></omm>
<omm id="CCSDS_OMM_VERS" version="2.0">
<header><CREATION_DATE/><ORIGINATOR/></header><body><segment><metadata><OBJECT_NAME>GSLV R/B</OBJECT_NAME><OBJECT_ID>2022-138AN</OBJECT_ID><CENTER_NAME>EARTH</CENTER_NAME><REF_FRAME>TEME</REF_FRAME><TIME_SYSTEM>UTC</TIME_SYSTEM><MEAN_ELEMENT_THEORY>SGP4</MEAN_ELEMENT_THEORY></metadata><data><meanElements><EPOCH>2024-02-06T13:44:36.953952</EPOCH><MEAN_MOTION>14.89806411</MEAN_MOTION><ECCENTRICITY>.0025626</ECCENTRICITY><INCLINATION>87.3766</INCLINATION><RA_OF_ASC_NODE>60.8833</RA_OF_ASC_NODE><ARG_OF_PERICENTER>34.0545</ARG_OF_PERICENTER><MEAN_ANOMALY>326.2321</MEAN_ANOMALY></meanElements><tleParameters><EPHEMERIS_TYPE>0</EPHEMERIS_TYPE><CLASSIFICATION_TYPE>U</CLASSIFICATION_TYPE><NORAD_CAT_ID>54149</NORAD_CAT_ID><ELEMENT_SET_NO>999</ELEMENT_SET_NO><REV_AT_EPOCH>7018</REV_AT_EPOCH><BSTAR>.31041E-3</BSTAR><MEAN_MOTION_DOT>.3022E-4</MEAN_MOTION_DOT><MEAN_MOTION_DDOT>0</MEAN_MOTION_DDOT></tleParameters></data></segment></body></omm>
<omm id="CCSDS_OMM_VERS" version="2.0">
<header><CREATION_DATE/><ORIGINATOR/></header><body><segment><metadata><OBJECT_NAME>ONEWEB-0527</OBJECT_NAME><OBJECT_ID>2022-166A</OBJECT_ID><CENTER_NAME>EARTH</CENTER_NAME><REF_FRAME>TEME</REF_FRAME><TIME_SYSTEM>UTC</TIME_SYSTEM><MEAN_ELEMENT_THEORY>SGP4</MEAN_ELEMENT_THEORY></metadata><data><meanElements><EPOCH>2024-02-07T02:59:35.249856</EPOCH><MEAN_MOTION>13.21826194</MEAN_MOTION><ECCENTRICITY>.0001873</ECCENTRICITY><INCLINATION>87.9202</INCLINATION><RA_OF_ASC_NODE>55.3868</RA_OF_ASC_NODE><ARG_OF_PERICENTER>87.1719</ARG_OF_PERICENTER><MEAN_ANOMALY>272.9629</MEAN_ANOMALY></meanElements><tleParameters><EPHEMERIS_TYPE>0</EPHEMERIS_TYPE><CLASSIFICATION_TYPE>U</CLASSIFICATION_TYPE><NORAD_CAT_ID>54642</NORAD_CAT_ID><ELEMENT_SET_NO>999</ELEMENT_SET_NO><REV_AT_EPOCH>5823</REV_AT_EPOCH><BSTAR>-.69599E-4</BSTAR><MEAN_MOTION_DOT>-.16E-6</MEAN_MOTION_DOT><MEAN_MOTION_DDOT>0</MEAN_MOTION_DDOT></tleParameters></data></segment></body></omm>

</ndm>
