ONEWEB-0525             
1 54143U 22138AG  24037.73103035 -.00000030  00000+0 -10816-3 0  9994
2 54143  87.9182 116.4594 0002272 101.7210 258.4177 13.19725672 63207
ONEWEB-0526             
1 54144U 22138AH  24037.76419864  .00000008  00000+0 -12516-4 0  9992
2 54144  87.9179 116.4508 0001993  99.7345 260.4013 13.19725438 63182
ONEWEB-0536             
1 54148U 22138AM  24037.63789211  .00000064  00000+0  12632-3 0  9997
2 54148  87.9150  85.9680 0000778 109.4036 250.7181 13.20772990 65572
GSLV R/B                
1 54149U 22138AN  24037.57264993  .00003022  00000+0  31041-3 0  9998
2 54149  87.3766  60.8833 0025626  34.0545 326.2321 14.89806411 70189
ONEWEB-0527             
1 54642U 22166A   24038.12471354 -.00000016  00000+0 -69599-4 0  9992
2 54642  87.9202  55.3868 0001873  87.1719 272.9629 13.21826194 58230
